start=new Date('2022-10-22T00:00:00.000Z').valueOf();
sats=[{"OBJECT_ID":"2019-074W","COUNTRY_CODE":"US","LAUNCH_DATE":"2019-11-11","ELEMENT_SET_NO":"999","NORAD_CAT_ID":"44733","SITE":"AFETR","ECCENTRICITY":"0.00015330","INCLINATION":"53.0553","REV_AT_EPOCH":"16262","TLE_LINE2":"2 44733  53.0553 330.1420 0001533  58.6615 301.4524 15.06417822162622","CENTER_NAME":"EARTH","MEAN_MOTION_DOT":"-0.00000878","TIME_SYSTEM":"UTC","PERIAPSIS":"546.097","SEMIMAJOR_AXIS":"6925.294","MEAN_MOTION":"15.06417822","BSTAR":"-0.00004000500000","MEAN_ANOMALY":"301.4524","TLE_LINE1":"1 44733U 19074W   22294.82312831 -.00000878  00000-0 -40005-4 0  9997","OBJECT_NAME":"STARLINK-1028","ARG_OF_PERICENTER":"58.6615","EPHEMERIS_TYPE":"0","RCS_SIZE":"LARGE","APOAPSIS":"548.221","DECAY_DATE":null,"PERIOD":"95.591","MEAN_ELEMENT_THEORY":"SGP4","GP_ID":"215839642","RA_OF_ASC_NODE":"330.1420","OBJECT_TYPE":"PAYLOAD","REF_FRAME":"TEME","MEAN_MOTION_DDOT":"0.0000000000000","EPOCH":"2022-10-21T19:45:18.285984","CLASSIFICATION_TYPE":"U","FILE":"3628413"},{"MEAN_MOTION_DDOT":"0.0000000000000","CLASSIFICATION_TYPE":"U","EPOCH":"2022-10-21T07:22:14.590848","FILE":"3627579","RA_OF_ASC_NODE":"252.4747","OBJECT_TYPE":"PAYLOAD","GP_ID":"215774092","REF_FRAME":"TEME","DECAY_DATE":null,"APOAPSIS":"548.667","RCS_SIZE":"LARGE","EPHEMERIS_TYPE":"0","MEAN_ELEMENT_THEORY":"SGP4","PERIOD":"95.594","TLE_LINE1":"1 44734U 19074X   22294.30711332  .00002455  00000-0  18378-3 0  9998","MEAN_ANOMALY":"304.4010","BSTAR":"0.00018378000000","OBJECT_NAME":"STARLINK-1029","ARG_OF_PERICENTER":"55.7167","MEAN_MOTION_DOT":"0.00002455","PERIAPSIS":"545.904","SEMIMAJOR_AXIS":"6925.421","MEAN_MOTION":"15.06376426","TIME_SYSTEM":"UTC","REV_AT_EPOCH":"16364","CENTER_NAME":"EARTH","TLE_LINE2":"2 44734  53.0547 252.4747 0001995  55.7167 304.4010 15.06376426163646","NORAD_CAT_ID":"44734","ELEMENT_SET_NO":"999","SITE":"AFETR","ECCENTRICITY":"0.00019950","INCLINATION":"53.0547","COUNTRY_CODE":"US","LAUNCH_DATE":"2019-11-11","OBJECT_ID":"2019-074X"},{"FILE":"3628413","CLASSIFICATION_TYPE":"U","EPOCH":"2022-10-21T13:36:26.126784","MEAN_MOTION_DDOT":"0.0000000000000","REF_FRAME":"TEME","OBJECT_TYPE":"PAYLOAD","RA_OF_ASC_NODE":"351.3108","GP_ID":"215841142","MEAN_ELEMENT_THEORY":"SGP4","PERIOD":"95.592","DECAY_DATE":null,"APOAPSIS":"548.638","EPHEMERIS_TYPE":"0","RCS_SIZE":"LARGE","OBJECT_NAME":"STARLINK-1030","ARG_OF_PERICENTER":"40.2913","MEAN_ANOMALY":"319.8227","TLE_LINE1":"1 44735U 19074Y   22294.56696906  .00000960  00000-0  83335-4 0  9991","BSTAR":"0.00008333500000","MEAN_MOTION":"15.06398100","PERIAPSIS":"545.800","SEMIMAJOR_AXIS":"6925.354","TIME_SYSTEM":"UTC","MEAN_MOTION_DOT":"0.00000960","CENTER_NAME":"EARTH","TLE_LINE2":"2 44735  53.0566 351.3108 0002049  40.2913 319.8227 15.06398100162302","REV_AT_EPOCH":"16230","INCLINATION":"53.0566","SITE":"AFETR","ECCENTRICITY":"0.00020490","NORAD_CAT_ID":"44735","ELEMENT_SET_NO":"999","LAUNCH_DATE":"2019-11-11","COUNTRY_CODE":"US","OBJECT_ID":"2019-074Y"},{"OBJECT_NAME":"STARLINK-1031","ARG_OF_PERICENTER":"52.1021","BSTAR":"-0.00001740900000","TLE_LINE1":"1 44736U 19074Z   22294.58171272 -.00000541  00000-0 -17409-4 0  9994","MEAN_ANOMALY":"308.0148","PERIOD":"95.593","MEAN_ELEMENT_THEORY":"SGP4","EPHEMERIS_TYPE":"0","RCS_SIZE":"LARGE","APOAPSIS":"548.607","DECAY_DATE":null,"REF_FRAME":"TEME","GP_ID":"215839893","OBJECT_TYPE":"PAYLOAD","RA_OF_ASC_NODE":"351.2465","FILE":"3628413","EPOCH":"2022-10-21T13:57:39.979008","CLASSIFICATION_TYPE":"U","MEAN_MOTION_DDOT":"0.0000000000000","OBJECT_ID":"2019-074Z","LAUNCH_DATE":"2019-11-11","COUNTRY_CODE":"US","INCLINATION":"53.0556","SITE":"AFETR","ECCENTRICITY":"0.00019870","ELEMENT_SET_NO":"999","NORAD_CAT_ID":"44736","TLE_LINE2":"2 44736  53.0556 351.2465 0001987  52.1021 308.0148 15.06394186162312","CENTER_NAME":"EARTH","REV_AT_EPOCH":"16231","TIME_SYSTEM":"UTC","PERIAPSIS":"545.855","MEAN_MOTION":"15.06394186","SEMIMAJOR_AXIS":"6925.366","MEAN_MOTION_DOT":"-0.00000541"},{"DECAY_DATE":null,"APOAPSIS":"548.568","RCS_SIZE":"LARGE","EPHEMERIS_TYPE":"0","MEAN_ELEMENT_THEORY":"SGP4","PERIOD":"95.591","MEAN_ANOMALY":"309.5262","TLE_LINE1":"1 44737U 19074AA  22294.65910828  .00002152  00000-0  16332-3 0  9992","BSTAR":"0.00016332000000","OBJECT_NAME":"STARLINK-1032","ARG_OF_PERICENTER":"50.5904","EPOCH":"2022-10-21T15:49:06.955392","CLASSIFICATION_TYPE":"U","MEAN_MOTION_DDOT":"0.0000000000000","FILE":"3628413","OBJECT_TYPE":"PAYLOAD","RA_OF_ASC_NODE":"350.8905","GP_ID":"215840141","REF_FRAME":"TEME","SITE":"AFETR","ECCENTRICITY":"0.00020020","ELEMENT_SET_NO":"999","NORAD_CAT_ID":"44737","INCLINATION":"53.0550","LAUNCH_DATE":"2019-11-11","COUNTRY_CODE":"US","OBJECT_ID":"2019-074AA","MEAN_MOTION_DOT":"0.00002152","PERIAPSIS":"545.795","SEMIMAJOR_AXIS":"6925.317","MEAN_MOTION":"15.06410337","TIME_SYSTEM":"UTC","REV_AT_EPOCH":"16232","CENTER_NAME":"EARTH","TLE_LINE2":"2 44737  53.0550 350.8905 0002002  50.5904 309.5262 15.06410337162323"},{"TIME_SYSTEM":"UTC","SEMIMAJOR_AXIS":"6925.269","PERIAPSIS":"545.732","MEAN_MOTION":"15.06425996","MEAN_MOTION_DOT":"0.00004168","TLE_LINE2":"2 44738  53.0550 351.8584 0002025  45.1708 314.9445 15.06425996162280","CENTER_NAME":"EARTH","REV_AT_EPOCH":"16228","INCLINATION":"53.0550","SITE":"AFETR","ECCENTRICITY":"0.00020250","NORAD_CAT_ID":"44738","ELEMENT_SET_NO":"999","OBJECT_ID":"2019-074AB","LAUNCH_DATE":"2019-11-11","COUNTRY_CODE":"US","FILE":"3627579","CLASSIFICATION_TYPE":"U","EPOCH":"2022-10-21T10:41:14.392608","MEAN_MOTION_DDOT":"0.0000000000000","REF_FRAME":"TEME","GP_ID":"215774592","RA_OF_ASC_NODE":"351.8584","OBJECT_TYPE":"PAYLOAD","PERIOD":"95.590","MEAN_ELEMENT_THEORY":"SGP4","EPHEMERIS_TYPE":"0","RCS_SIZE":"LARGE","DECAY_DATE":null,"APOAPSIS":"548.536","OBJECT_NAME":"STARLINK-1033","ARG_OF_PERICENTER":"45.1708","BSTAR":"0.00029835000000","TLE_LINE1":"1 44738U 19074AB  22294.44530547  .00004168  00000-0  29835-3 0  9997","MEAN_ANOMALY":"314.9445"},{"OBJECT_ID":"2019-074AC","COUNTRY_CODE":"US","LAUNCH_DATE":"2019-11-11","NORAD_CAT_ID":"44739","ELEMENT_SET_NO":"999","SITE":"AFETR","ECCENTRICITY":"0.00037640","INCLINATION":"52.9973","REV_AT_EPOCH":"16257","TLE_LINE2":"2 44739  52.9973 329.8569 0003764  43.3289 316.8000 15.19892863162576","CENTER_NAME":"EARTH","MEAN_MOTION_DOT":"0.00030111","TIME_SYSTEM":"UTC","PERIAPSIS":"503.575","SEMIMAJOR_AXIS":"6884.301","MEAN_MOTION":"15.19892863","BSTAR":"0.00139380000000","TLE_LINE1":"1 44739U 19074AC  22294.79751963  .00030111  00000-0  13938-2 0  9996","MEAN_ANOMALY":"316.8000","OBJECT_NAME":"STARLINK-1034","ARG_OF_PERICENTER":"43.3289","RCS_SIZE":"LARGE","EPHEMERIS_TYPE":"0","DECAY_DATE":null,"APOAPSIS":"508.757","PERIOD":"94.744","MEAN_ELEMENT_THEORY":"SGP4","GP_ID":"215840644","OBJECT_TYPE":"PAYLOAD","RA_OF_ASC_NODE":"329.8569","REF_FRAME":"TEME","MEAN_MOTION_DDOT":"0.0000000000000","CLASSIFICATION_TYPE":"U","EPOCH":"2022-10-21T19:08:25.696032","FILE":"3628413"},{"MEAN_MOTION_DOT":"0.00001445","TIME_SYSTEM":"UTC","PERIAPSIS":"545.838","SEMIMAJOR_AXIS":"6925.360","MEAN_MOTION":"15.06396166","REV_AT_EPOCH":"16232","TLE_LINE2":"2 44740  53.0548 350.9108 0002003  46.4724 313.6431 15.06396166162322","CENTER_NAME":"EARTH","ELEMENT_SET_NO":"999","NORAD_CAT_ID":"44740","SITE":"AFETR","ECCENTRICITY":"0.00020030","INCLINATION":"53.0548","OBJECT_ID":"2019-074AD","COUNTRY_CODE":"US","LAUNCH_DATE":"2019-11-11","MEAN_MOTION_DDOT":"0.0000000000000","EPOCH":"2022-10-21T15:43:49.221120","CLASSIFICATION_TYPE":"U","FILE":"3628413","GP_ID":"215839394","RA_OF_ASC_NODE":"350.9108","OBJECT_TYPE":"PAYLOAD","REF_FRAME":"TEME","EPHEMERIS_TYPE":"0","RCS_SIZE":"LARGE","APOAPSIS":"548.612","DECAY_DATE":null,"PERIOD":"95.592","MEAN_ELEMENT_THEORY":"SGP4","BSTAR":"0.00011588000000","MEAN_ANOMALY":"313.6431","TLE_LINE1":"1 44740U 19074AD  22294.65543080  .00001445  00000-0  11588-3 0  9990","OBJECT_NAME":"STARLINK-1035","ARG_OF_PERICENTER":"46.4724"},{"LAUNCH_DATE":"2019-11-11","COUNTRY_CODE":"US","OBJECT_ID":"2019-074AE","SITE":"AFETR","ECCENTRICITY":"0.00016990","ELEMENT_SET_NO":"999","NORAD_CAT_ID":"44741","INCLINATION":"53.0569","REV_AT_EPOCH":"16246","CENTER_NAME":"EARTH","TLE_LINE2":"2 44741  53.0569 351.7525 0001699  55.3772 304.7377 15.06398316162464","MEAN_MOTION_DOT":"0.00000069","MEAN_MOTION":"15.06398316","PERIAPSIS":"546.042","SEMIMAJOR_AXIS":"6925.354","TIME_SYSTEM":"UTC","TLE_LINE1":"1 44741U 19074AE  22294.46744551  .00000069  00000-0  23516-4 0  9992","MEAN_ANOMALY":"304.7377","BSTAR":"0.00002351600000","ARG_OF_PERICENTER":"55.3772","OBJECT_NAME":"STARLINK-1036","DECAY_DATE":null,"APOAPSIS":"548.395","RCS_SIZE":"LARGE","EPHEMERIS_TYPE":"0","MEAN_ELEMENT_THEORY":"SGP4","PERIOD":"95.592","OBJECT_TYPE":"PAYLOAD","RA_OF_ASC_NODE":"351.7525","GP_ID":"215750853","REF_FRAME":"TEME","CLASSIFICATION_TYPE":"U","EPOCH":"2022-10-21T11:13:07.292064","MEAN_MOTION_DDOT":"0.0000000000000","FILE":"3627439"},{"INCLINATION":"52.9863","NORAD_CAT_ID":"44742","ELEMENT_SET_NO":"999","ECCENTRICITY":"0.00041270","SITE":"AFETR","OBJECT_ID":"2019-074AF","COUNTRY_CODE":"US","LAUNCH_DATE":"2019-11-11","TIME_SYSTEM":"UTC","PERIAPSIS":"496.761","MEAN_MOTION":"15.22070136","SEMIMAJOR_AXIS":"6877.734","MEAN_MOTION_DOT":"0.00024744","TLE_LINE2":"2 44742  52.9863 323.0517 0004127  56.0893 304.0494 15.22070136162675","CENTER_NAME":"EARTH","REV_AT_EPOCH":"16267","PERIOD":"94.608","MEAN_ELEMENT_THEORY":"SGP4","EPHEMERIS_TYPE":"0","RCS_SIZE":"LARGE","DECAY_DATE":null,"APOAPSIS":"502.438","ARG_OF_PERICENTER":"56.0893","OBJECT_NAME":"STARLINK-1037","BSTAR":"0.00107820000000","TLE_LINE1":"1 44742U 19074AF  22294.79494241  .00024744  00000-0  10782-2 0  9992","MEAN_ANOMALY":"304.0494","FILE":"3628413","MEAN_MOTION_DDOT":"0.0000000000000","CLASSIFICATION_TYPE":"U","EPOCH":"2022-10-21T19:04:43.024224","REF_FRAME":"TEME","GP_ID":"215840394","RA_OF_ASC_NODE":"323.0517","OBJECT_TYPE":"PAYLOAD"}];
